{"type": "FeatureCollection", "features": [ {"type": "Feature", "properties": {"norad_id": 66686, "name": "TRANSPORTER-15 W", "group": "last-30-days", "lat": -71.25952875276771, "lon": 89.9808432923073, "alt_km": 520.0538236495822, "timestamp": "2025-12-21T16:47:53.448909+00:00", "meta": {"OBJECT_NAME": "TRANSPORTER-15 W", "OBJECT_ID": "2025-276W", "EPOCH": "2025-12-21T10:47:09.788640", "MEAN_MOTION": 15.16985058, "ECCENTRICITY": 0.0004064, "INCLINATION": 97.446, "RA_OF_ASC_NODE": 67.0606, "ARG_OF_PERICENTER": 250.1446, "MEAN_ANOMALY": 109.9349, "EPHEMERIS_TYPE": 0, "CLASSIFICATION_TYPE": "U", "NORAD_CAT_ID": 66686, "ELEMENT_SET_NO": 999, "REV_AT_EPOCH": 344, "BSTAR": 0.0003052, "MEAN_MOTION_DOT": 5.963e-05, "MEAN_MOTION_DDOT": 0}, "tle": {"line1": "1 66686U 25276W   25355.44941885  .00005963  00000+0  30520-3 0  9992", "line2": "2 66686  97.4460  67.0606 0004064 250.1446 109.9349 15.16985058  3449"}}, "geometry": {"type": "Point", "coordinates": [89.9808432923073, -71.25952875276771]}}, {"type": "Feature", "properties": {"norad_id": 66687, "name": "TRANSPORTER-15 X", "group": "last-30-days", "lat": -76.95782089093755, "lon": -147.06452561524353, "alt_km": 528.6680689570476, "timestamp": "2025-12-21T16:47:53.448919+00:00", "meta": {"OBJECT_NAME": "TRANSPORTER-15 X", "OBJECT_ID": "2025-276X", "EPOCH": "2025-12-21T10:54:30.367296", "MEAN_MOTION": 15.16662976, "ECCENTRICITY": 0.0008361, "INCLINATION": 97.4393, "RA_OF_ASC_NODE": 67.0332, "ARG_OF_PERICENTER": 59.6005, "MEAN_ANOMALY": 300.6053, "EPHEMERIS_TYPE": 0, "CLASSIFICATION_TYPE": "U", "NORAD_CAT_ID": 66687, "ELEMENT_SET_NO": 999, "REV_AT_EPOCH": 344, "BSTAR": 0.0005601, "MEAN_MOTION_DOT": 0.00010913, "MEAN_MOTION_DDOT": 0}, "tle": {"line1": "1 66687U 25276X   25355.45451814  .00010913  00000+0  56010-3 0  9995", "line2": "2 66687  97.4393  67.0332 0008361  59.6005 300.6053 15.16662976  3441"}}, "geometry": {"type": "Point", "coordinates": [-147.06452561524353, -76.95782089093755]}}, {"type": "Feature", "properties": {"norad_id": 66688, "name": "TRANSPORTER-15 Y", "group": "last-30-days", "lat": -66.94072309749443, "lon": 85.1892876806168, "alt_km": 520.0218474513713, "timestamp": "2025-12-21T16:47:53.448929+00:00", "meta": {"OBJECT_NAME": "TRANSPORTER-15 Y", "OBJECT_ID": "2025-276Y", "EPOCH": "2025-12-21T10:45:57.235104", "MEAN_MOTION": 15.17059144, "ECCENTRICITY": 0.0003649, "INCLINATION": 97.4439, "RA_OF_ASC_NODE": 67.0556, "ARG_OF_PERICENTER": 254.4316, "MEAN_ANOMALY": 105.6515, "EPHEMERIS_TYPE": 0, "CLASSIFICATION_TYPE": "U", "NORAD_CAT_ID": 66688, "ELEMENT_SET_NO": 999, "REV_AT_EPOCH": 344, "BSTAR": 0.00036599, "MEAN_MOTION_DOT": 7.18e-05, "MEAN_MOTION_DDOT": 0}, "tle": {"line1": "1 66688U 25276Y   25355.44857911  .00007180  00000+0  36599-3 0  9995", "line2": "2 66688  97.4439  67.0556 0003649 254.4316 105.6515 15.17059144  3449"}}, "geometry": {"type": "Point", "coordinates": [85.1892876806168, -66.94072309749443]}}, {"type": "Feature", "properties": {"norad_id": 66689, "name": "TRANSPORTER-15 Z", "group": "last-30-days", "lat": -45.24646114435554, "lon": 74.8850698749233, "alt_km": 513.2697914242608, "timestamp": "2025-12-21T16:47:53.448938+00:00", "meta": {"OBJECT_NAME": "TRANSPORTER-15 Z", "OBJECT_ID": "2025-276Z", "EPOCH": "2025-12-21T05:55:52.013856", "MEAN_MOTION": 15.18560021, "ECCENTRICITY": 0.0003325, "INCLINATION": 97.4422, "RA_OF_ASC_NODE": 66.8629, "ARG_OF_PERICENTER": 280.5478, "MEAN_ANOMALY": 79.5382, "EPHEMERIS_TYPE": 0, "CLASSIFICATION_TYPE": "U", "NORAD_CAT_ID": 66689, "ELEMENT_SET_NO": 999, "REV_AT_EPOCH": 341, "BSTAR": 0.031229, "MEAN_MOTION_DOT": 0.00690544, "MEAN_MOTION_DDOT": 0}, "tle": {"line1": "1 66689U 25276Z   25355.24712979  .00690544  00000+0  31229-1 0  9993", "line2": "2 66689  97.4422  66.8629 0003325 280.5478  79.5382 15.18560021  3410"}}, "geometry": {"type": "Point", "coordinates": [74.8850698749233, -45.24646114435554]}}, {"type": "Feature", "properties": {"norad_id": 66690, "name": "TRANSPORTER-15 AA", "group": "last-30-days", "lat": -67.1844700246662, "lon": 85.38850215318132, "alt_km": 520.0747881536226, "timestamp": "2025-12-21T16:47:53.448950+00:00", "meta": {"OBJECT_NAME": "TRANSPORTER-15 AA", "OBJECT_ID": "2025-276AA", "EPOCH": "2025-12-21T12:20:59.972064", "MEAN_MOTION": 15.17043176, "ECCENTRICITY": 0.0003532, "INCLINATION": 97.4399, "RA_OF_ASC_NODE": 67.1093, "ARG_OF_PERICENTER": 256.4121, "MEAN_ANOMALY": 103.6719, "EPHEMERIS_TYPE": 0, "CLASSIFICATION_TYPE": "U", "NORAD_CAT_ID": 66690, "ELEMENT_SET_NO": 999, "REV_AT_EPOCH": 345, "BSTAR": 0.00041394, "MEAN_MOTION_DOT": 8.127e-05, "MEAN_MOTION_DDOT": 0}, "tle": {"line1": "1 66690U 25276AA  25355.51458301  .00008127  00000+0  41394-3 0  9997", "line2": "2 66690  97.4399  67.1093 0003532 256.4121 103.6719 15.17043176  3454"}}, "geometry": {"type": "Point", "coordinates": [85.38850215318132, -67.1844700246662]}}, {"type": "Feature", "properties": {"norad_id": 66691, "name": "TRANSPORTER-15 AB", "group": "last-30-days", "lat": -57.647464542628356, "lon": 79.21193561093621, "alt_km": 519.4852268255781, "timestamp": "2025-12-21T16:47:53.448961+00:00", "meta": {"OBJECT_NAME": "TRANSPORTER-15 AB", "OBJECT_ID": "2025-276AB", "EPOCH": "2025-12-21T10:43:26.556096", "MEAN_MOTION": 15.1726404, "ECCENTRICITY": 0.0003683, "INCLINATION": 97.4425, "RA_OF_ASC_NODE": 67.054, "ARG_OF_PERICENTER": 255.9731, "MEAN_ANOMALY": 104.1093, "EPHEMERIS_TYPE": 0, "CLASSIFICATION_TYPE": "U", "NORAD_CAT_ID": 66691, "ELEMENT_SET_NO": 999, "REV_AT_EPOCH": 344, "BSTAR": 0.00043214, "MEAN_MOTION_DOT": 8.542e-05, "MEAN_MOTION_DDOT": 0}, "tle": {"line1": "1 66691U 25276AB  25355.44683514  .00008542  00000+0  43214-3 0  9990", "line2": "2 66691  97.4425  67.0540 0003683 255.9731 104.1093 15.17264040  3444"}}, "geometry": {"type": "Point", "coordinates": [79.21193561093621, -57.647464542628356]}}, {"type": "Feature", "properties": {"norad_id": 66692, "name": "TRANSPORTER-15 AC", "group": "last-30-days", "lat": -41.047848335651665, "lon": 73.85075337857309, "alt_km": 521.2344619256919, "timestamp": "2025-12-21T16:47:53.448973+00:00", "meta": {"OBJECT_NAME": "TRANSPORTER-15 AC", "OBJECT_ID": "2025-276AC", "EPOCH": "2025-12-21T12:13:57.989280", "MEAN_MOTION": 15.17429936, "ECCENTRICITY": 0.0002441, "INCLINATION": 97.4441, "RA_OF_ASC_NODE": 67.1264, "ARG_OF_PERICENTER": 194.7593, "MEAN_ANOMALY": 165.357, "EPHEMERIS_TYPE": 0, "CLASSIFICATION_TYPE": "U", "NORAD_CAT_ID": 66692, "ELEMENT_SET_NO": 999, "REV_AT_EPOCH": 345, "BSTAR": -0.0018739, "MEAN_MOTION_DOT": -0.00037331, "MEAN_MOTION_DDOT": 0}, "tle": {"line1": "1 66692U 25276AC  25355.50969895 -.00037331  00000+0 -18739-2 0  9990", "line2": "2 66692  97.4441  67.1264 0002441 194.7593 165.3570 15.17429936  3451"}}, "geometry": {"type": "Point", "coordinates": [73.85075337857309, -41.047848335651665]}}, {"type": "Feature", "properties": {"norad_id": 66693, "name": "TRANSPORTER-15 AD", "group": "last-30-days", "lat": -42.668626903657426, "lon": 74.21079269836223, "alt_km": 518.0786726454726, "timestamp": "2025-12-21T16:47:53.448983+00:00", "meta": {"OBJECT_NAME": "TRANSPORTER-15 AD", "OBJECT_ID": "2025-276AD", "EPOCH": "2025-12-21T10:39:28.123200", "MEAN_MOTION": 15.17559883, "ECCENTRICITY": 0.0003263, "INCLINATION": 97.438, "RA_OF_ASC_NODE": 67.0431, "ARG_OF_PERICENTER": 281.5978, "MEAN_ANOMALY": 78.4889, "EPHEMERIS_TYPE": 0, "CLASSIFICATION_TYPE": "U", "NORAD_CAT_ID": 66693, "ELEMENT_SET_NO": 999, "REV_AT_EPOCH": 344, "BSTAR": 0.00057543, "MEAN_MOTION_DOT": 0.00011497, "MEAN_MOTION_DDOT": 0}, "tle": {"line1": "1 66693U 25276AD  25355.44407550  .00011497  00000+0  57543-3 0  9999", "line2": "2 66693  97.4380  67.0431 0003263 281.5978  78.4889 15.17559883  3445"}}, "geometry": {"type": "Point", "coordinates": [74.21079269836223, -42.668626903657426]}}, {"type": "Feature", "properties": {"norad_id": 66694, "name": "YAM-9", "group": "last-30-days", "lat": -32.85373227234544, "lon": 72.15469396104926, "alt_km": 518.9323364792717, "timestamp": "2025-12-21T16:47:53.448994+00:00", "meta": {"OBJECT_NAME": "YAM-9", "OBJECT_ID": "2025-276AE", "EPOCH": "2025-12-21T10:36:50.353344", "MEAN_MOTION": 15.17538727, "ECCENTRICITY": 0.0001524, "INCLINATION": 97.4419, "RA_OF_ASC_NODE": 67.0593, "ARG_OF_PERICENTER": 268.4852, "MEAN_ANOMALY": 91.6207, "EPHEMERIS_TYPE": 0, "CLASSIFICATION_TYPE": "U", "NORAD_CAT_ID": 66694, "ELEMENT_SET_NO": 999, "REV_AT_EPOCH": 344, "BSTAR": 0.00064473, "MEAN_MOTION_DOT": 0.00012883, "MEAN_MOTION_DDOT": 0}, "tle": {"line1": "1 66694U 25276AE  25355.44224946  .00012883  00000+0  64473-3 0  9996", "line2": "2 66694  97.4419  67.0593 0001524 268.4852  91.6207 15.17538727  3446"}}, "geometry": {"type": "Point", "coordinates": [72.15469396104926, -32.85373227234544]}}, {"type": "Feature", "properties": {"norad_id": 66695, "name": "IRIDE FM1", "group": "last-30-days", "lat": 21.24993963886102, "lon": 64.41746961743739, "alt_km": 511.64712401898305, "timestamp": "2025-12-21T16:47:53.449004+00:00", "meta": {"OBJECT_NAME": "IRIDE FM1", "OBJECT_ID": "2025-276AF", "EPOCH": "2025-12-21T11:57:31.040352", "MEAN_MOTION": 15.18226317, "ECCENTRICITY": 0.0001239, "INCLINATION": 97.4409, "RA_OF_ASC_NODE": 67.1324, "ARG_OF_PERICENTER": 148.1317, "MEAN_ANOMALY": 211.9992, "EPHEMERIS_TYPE": 0, "CLASSIFICATION_TYPE": "U", "NORAD_CAT_ID": 66695, "ELEMENT_SET_NO": 999, "REV_AT_EPOCH": 345, "BSTAR": 0.00045435, "MEAN_MOTION_DOT": 9.236e-05, "MEAN_MOTION_DDOT": 0}, "tle": {"line1": "1 66695U 25276AF  25355.49827593  .00009236  00000+0  45435-3 0  9994", "line2": "2 66695  97.4409  67.1324 0001239 148.1317 211.9992 15.18226317  3451"}}, "geometry": {"type": "Point", "coordinates": [64.41746961743739, 21.24993963886102]}}]}